IRIDIUM 159             
1 43578U 18061K   24352.84896246  .00000747  00000+0  25969-3 0  9997
2 43578  86.3960 284.9977 0002248  85.2617 274.8835 14.34220273335075
IRIDIUM 180             
1 43922U 19002A   24352.91823193  .00000582  00000+0  20057-3 0  9995
2 43922  86.3986 221.8446 0001989  84.4052 275.7370 14.34220852310690
IRIDIUM 176             
1 43923U 19002B   24352.90253938  .00002041  00000+0  31959-3 0  9994
2 43923  86.6114 221.8583 0002980  73.7851 286.3694 14.72270338318870
IRIDIUM 168             
1 43924U 19002C   24352.91188979  .00000586  00000+0  20225-3 0  9994
2 43924  86.3988 221.9091 0002019  85.5762 274.5664 14.34217063310677
IRIDIUM 173             
1 43925U 19002D   24352.89920023  .00000035  00000+0  54120-5 0  9998
2 43925  86.3986 221.8257 0001990  81.9709 278.1713 14.34217775310650
IRIDIUM 169             
1 43926U 19002E   24352.82212116  .00000822  00000+0  26221-3 0  9992
2 43926  86.4228 253.4703 0002247  37.4742 322.6613 14.38609300311677
IRIDIUM 172             
1 43927U 19002F   24352.89285733  .00000168  00000+0  53033-4 0  9990
2 43927  86.3984 221.8345 0002133  85.9210 274.2230 14.34218850310666
IRIDIUM 175             
1 43928U 19002G   24352.89718814  .00000794  00000+0  12207-3 0  9994
2 43928  86.1523 184.6801 0000679  62.8824 297.2462 14.72235531318864
